     2.10           N: GPS NAV DATA                         RINEX VERSION / TYPE
teqc  2008Oct2      WCDA Operator       20090108 00:18:53UTCPGM / RUN BY / DATE
Solaris x86 5.10|AMD64|cc SC5.8 -xarch=amd64|=+|=+          COMMENT
teqc  2008Oct2      WCDA Operator       20090107 01:18:42UTCCOMMENT
                                                            END OF HEADER
27 09  1  7 11 59 44.0 1.428881660104D-05 3.069544618484D-12 0.000000000000D+00
    9.000000000000D+00-1.337812500000D+02 3.913377293587D-09-2.595248393073D+00
   -6.955116987228D-06 2.105067414232D-02 7.681548595428D-06 5.155215841293D+03
    3.023840000000D+05 2.551823854446D-07-1.090292641579D+00 1.024454832077D-07
    9.724405828536D-01 2.273437500000D+02-1.667185260455D+00-7.479597269534D-09
    1.503634060966D-10 1.000000000000D+00 1.513000000000D+03 0.000000000000D+00
    2.000000000000D+00 0.000000000000D+00-4.656612873077D-09 9.000000000000D+00
    2.952180000000D+05 4.000000000000D+00
 7 09  1  7 12  0  0.0 2.342928200960D-05-1.136868377216D-13 0.000000000000D+00
    3.700000000000D+01-1.108750000000D+02 4.263391873099D-09-2.104813514389D-01
   -5.839392542839D-06 2.305143279955D-03 8.253380656242D-06 5.153684497833D+03
    3.024000000000D+05 4.097819328308D-08-1.031223312807D+00-1.117587089539D-08
    9.654709851133D-01 2.223437500000D+02 2.909471779887D+00-7.940687904382D-09
    4.535903224290D-11 1.000000000000D+00 1.513000000000D+03 0.000000000000D+00
    2.000000000000D+00 0.000000000000D+00-1.071020960808D-08 3.700000000000D+01
    2.952180000000D+05 4.000000000000D+00
16 09  1  7 11 59 44.0 8.368631824851D-05-2.614797267597D-12 0.000000000000D+00
    1.000000000000D+00-2.053125000000D+01 4.420898433879D-09-2.539528950671D+00
   -9.723007678986D-07 4.933816380799D-03 9.356066584587D-06 5.153738164902D+03
    3.023840000000D+05-8.009374141693D-08 3.636934450632D-02 0.000000000000D+00
    9.676348794082D-01 2.038437500000D+02-3.860758956450D-01-7.709249692622D-09
    5.343079703573D-10 1.000000000000D+00 1.513000000000D+03 0.000000000000D+00
    2.000000000000D+00 0.000000000000D+00-9.778887033463D-09 1.000000000000D+00
    2.952180000000D+05 4.000000000000D+00
 6 09  1  7 12  0  0.0 9.985407814384D-05-1.170974428533D-11 0.000000000000D+00
    1.200000000000D+01-5.750000000000D+00 5.574160757598D-09-2.492758124033D+00
   -2.291053533554D-07 5.631315172650D-03 5.636364221573D-06 5.153701913834D+03
    3.024000000000D+05 4.656612873077D-08 1.018527827372D+00 7.823109626770D-08
    9.333689594779D-01 2.533125000000D+02-1.487827482375D+00-8.329632676921D-09
   -4.893060958486D-11 1.000000000000D+00 1.513000000000D+03 0.000000000000D+00
    2.000000000000D+00 0.000000000000D+00-4.656612873077D-09 1.200000000000D+01
    2.952180000000D+05 4.000000000000D+00
21 09  1  7 12  0  0.0 3.496697172523D-05-1.705302565824D-12 0.000000000000D+00
    3.100000000000D+01 5.793750000000D+01 4.897346851297D-09-1.150446241344D+00
    2.855435013771D-06 1.452285237610D-02 1.041777431965D-05 5.153654253006D+03
    3.024000000000D+05 3.129243850708D-07 2.131241274319D+00-1.732259988785D-07
    9.345743659394D-01 1.618750000000D+02-2.656754023189D+00-8.017833974968D-09
   -5.085926134952D-10 1.000000000000D+00 1.513000000000D+03 0.000000000000D+00
    2.000000000000D+00 0.000000000000D+00-1.164153218269D-08 3.100000000000D+01
    2.964780000000D+05 4.000000000000D+00
26 09  1  7 12  0  0.0 3.393786028028D-05 3.524291969370D-12 0.000000000000D+00
    4.800000000000D+01-3.921875000000D+01 4.058740491404D-09 9.212275059891D-01
   -2.041459083557D-06 1.941375434399D-02 1.946464180946D-06 5.153641372681D+03
    3.024000000000D+05-2.179294824600D-07-2.027514563011D+00 1.359730958939D-07
    9.930606018973D-01 3.622812500000D+02 9.647340079466D-01-8.442494520927D-09
   -2.617966191657D-10 1.000000000000D+00 1.513000000000D+03 0.000000000000D+00
    2.000000000000D+00 0.000000000000D+00-6.053596735001D-09 4.800000000000D+01
    2.966280000000D+05 4.000000000000D+00
11 09  1  7 12  0  0.0 1.121452078223D-05-1.023181539495D-12 0.000000000000D+00
    6.000000000000D+01 1.890625000000D+01 6.222044887430D-09-3.621103599671D-01
    1.024454832077D-06 9.123070747592D-03 8.756294846535D-06 5.153663591385D+03
    3.024000000000D+05 5.029141902924D-08 1.905530964693D+00 1.620501279831D-07
    8.896609142224D-01 1.711250000000D+02 6.746667852768D-01-8.865369278215D-09
   -5.346651280915D-10 1.000000000000D+00 1.513000000000D+03 0.000000000000D+00
    2.000000000000D+00 0.000000000000D+00-1.210719347000D-08 6.000000000000D+01
    2.990280000000D+05 4.000000000000D+00
15 09  1  7 12  0  0.0-2.385657280684D-04-5.684341886081D-12 0.000000000000D+00
    8.700000000000D+01-3.237500000000D+01 4.799842789861D-09 2.427300420725D+00
   -1.635402441025D-06 1.362253911793D-03 4.526227712631D-07 5.153758876801D+03
    3.024000000000D+05 3.725290298462D-08-2.092225638282D+00 3.539025783539D-08
    9.569903392889D-01 3.677812500000D+02-8.096097033796D-01-8.574285724845D-09
   -6.178828801592D-11 1.000000000000D+00 1.513000000000D+03 0.000000000000D+00
    2.000000000000D+00 0.000000000000D+00-9.778887033463D-09 8.700000000000D+01
    2.991780000000D+05 4.000000000000D+00
15 09  1  7 11 59 44.0-2.385657280684D-04-5.684341886081D-12 0.000000000000D+00
    2.100000000000D+01-3.237500000000D+01 4.799842789861D-09 2.424967358973D+00
   -1.635402441025D-06 1.362254493870D-03 4.526227712631D-07 5.153758878708D+03
    3.023840000000D+05 3.725290298462D-08-2.092225500767D+00 3.539025783539D-08
    9.569903158822D-01 3.677812500000D+02-8.096102651401D-01-8.574285724845D-09
   -6.178828801592D-11 1.000000000000D+00 1.513000000000D+03 0.000000000000D+00
    2.000000000000D+00 0.000000000000D+00-9.778887033463D-09 2.100000000000D+01
    2.992980000000D+05 4.000000000000D+00
17 09  1  7 12  0  0.0 4.368182271719D-05 9.094947017729D-13 0.000000000000D+00
    5.000000000000D+01-5.531250000000D+00 4.835558563281D-09 2.661051761979D+00
   -3.203749656677D-07 4.098011995666D-03 6.742775440216D-06 5.153620161057D+03
    3.024000000000D+05-7.636845111847D-08 1.077938036537D+00-2.048909664154D-08
    9.593439535778D-01 2.490312500000D+02-2.777605211732D+00-7.979618097409D-09
   -1.857220217820D-10 1.000000000000D+00 1.513000000000D+03 0.000000000000D+00
    2.000000000000D+00 0.000000000000D+00-1.024454832077D-08 5.000000000000D+01
    3.013680000000D+05 4.000000000000D+00
28 09  1  7 14  0  0.0-2.377340570092D-05 0.000000000000D+00 0.000000000000D+00
    8.700000000000D+01-1.965625000000D+01 4.385182660460D-09-2.160116080728D+00
   -1.085922122002D-06 1.447072997689D-02 8.996576070786D-06 5.153636266708D+03
    3.096000000000D+05 1.639127731323D-07 4.468661456544D-02-2.793967723846D-08
    9.658200695512D-01 2.043437500000D+02-2.069554256990D+00-7.600673741427D-09
    6.539558113130D-10 1.000000000000D+00 1.513000000000D+03 0.000000000000D+00
    2.800000000000D+00 0.000000000000D+00-1.024454832077D-08 8.700000000000D+01
    3.024180000000D+05 4.000000000000D+00
26 09  1  7 14  0  0.0 3.396347165108D-05 3.524291969370D-12 0.000000000000D+00
    4.900000000000D+01-3.659375000000D+01 3.909448558510D-09 1.971439915323D+00
   -2.188608050346D-06 1.941362465732D-02 1.857057213783D-06 5.153640798569D+03
    3.096000000000D+05-3.091990947723D-07-2.027575869519D+00-4.004687070847D-07
    9.930611373253D-01 3.635937500000D+02 9.647198293446D-01-8.025334287386D-09
   -1.750072897561D-11 1.000000000000D+00 1.513000000000D+03 0.000000000000D+00
    2.000000000000D+00 0.000000000000D+00-6.053596735001D-09 4.900000000000D+01
    3.024180000000D+05 4.000000000000D+00
19 09  1  7 14  0  0.0 3.411667421460D-05-4.547473508865D-13 0.000000000000D+00
    2.200000000000D+01-4.062500000000D+00 5.055210569811D-09 2.977882200472D+00
   -1.452863216400D-07 5.033485824242D-03 6.316229701042D-06 5.153760175705D+03
    3.096000000000D+05-8.195638656616D-08 1.134349845881D+00 5.960464477539D-08
    9.570489437872D-01 2.559687500000D+02-3.966814416829D-01-8.034977546209D-09
   -1.746501320219D-10 1.000000000000D+00 1.513000000000D+03 0.000000000000D+00
    2.000000000000D+00 0.000000000000D+00-1.443549990654D-08 2.200000000000D+01
    3.024180000000D+05 4.000000000000D+00
15 09  1  7 13 59 44.0-2.386067062616D-04-5.684341886081D-12 0.000000000000D+00
    2.200000000000D+01-2.393750000000D+01 4.782699218620D-09-2.808304518367D+00
   -1.154839992523D-06 1.363184535876D-03 6.444752216339D-07 5.153757259369D+03
    3.095840000000D+05-5.774199962616D-08-2.092287468514D+00 1.676380634308D-08
    9.569902778463D-01 3.639687500000D+02-8.093927423880D-01-8.519997749248D-09
    4.285892810353D-12 1.000000000000D+00 1.513000000000D+03 0.000000000000D+00
    2.000000000000D+00 0.000000000000D+00-9.778887033463D-09 2.200000000000D+01
    3.024180000000D+05 4.000000000000D+00
17 09  1  7 14  0  0.0 4.368880763650D-05 9.094947017729D-13 0.000000000000D+00
    5.200000000000D+01-8.062500000000D+00 4.909133056525D-09-2.571949798821D+00
   -3.613531589508D-07 4.098246106878D-03 6.655231118202D-06 5.153619712830D+03
    3.096000000000D+05-4.284083843231D-08 1.077880172276D+00-1.173466444016D-07
    9.593424657901D-01 2.491875000000D+02-2.777572698378D+00-8.043906489564D-09
   -1.467918287546D-10 1.000000000000D+00 1.513000000000D+03 0.000000000000D+00
    2.000000000000D+00 0.000000000000D+00-1.024454832077D-08 5.200000000000D+01
    3.024180000000D+05 4.000000000000D+00
